<?xml version="1.0" encoding="UTF-8"?>
<kml xmlns="http://www.opengis.net/kml/2.2" xmlns:gx="http://www.google.com/kml/ext/2.2" xmlns:kml="http://www.opengis.net/kml/2.2" xmlns:atom="http://www.w3.org/2005/Atom">
<Document>
	<name>Hakalau Forest National Wildlife Refuge.kmz</name>
	<StyleMap id="m_ylw-pushpin">
		<Pair>
			<key>normal</key>
			<styleUrl>#s_ylw-pushpin</styleUrl>
		</Pair>
		<Pair>
			<key>highlight</key>
			<styleUrl>#s_ylw-pushpin_hl</styleUrl>
		</Pair>
	</StyleMap>
	<Style id="s_ylw-pushpin">
		<IconStyle>
			<scale>1.1</scale>
			<Icon>
				<href>http://maps.google.com/mapfiles/kml/pushpin/ylw-pushpin.png</href>
			</Icon>
			<hotSpot x="20" y="2" xunits="pixels" yunits="pixels"/>
		</IconStyle>
	</Style>
	<Style id="s_ylw-pushpin_hl">
		<IconStyle>
			<scale>1.3</scale>
			<Icon>
				<href>http://maps.google.com/mapfiles/kml/pushpin/ylw-pushpin.png</href>
			</Icon>
			<hotSpot x="20" y="2" xunits="pixels" yunits="pixels"/>
		</IconStyle>
	</Style>
	<Placemark>
		<name>Hakalau Forest National Wildlife Refuge</name>
		<styleUrl>#m_ylw-pushpin</styleUrl>
		<Polygon>
			<tessellate>1</tessellate>
			<outerBoundaryIs>
				<LinearRing>
					<coordinates>
						-155.2577507673212,19.81632339553479,0 -155.2342347503504,19.82931959030216,0 -155.2393778885272,19.85852376047924,0 -155.2444973767791,19.87499694008329,0 -155.2482070370408,19.87410060047339,0 -155.2496590690032,19.87336945312964,0 -155.2513480630128,19.87183836487972,0 -155.2525855186372,19.87140950305561,0 -155.254174256607,19.8704153444428,0 -155.2568368092976,19.87043841862978,0 -155.2586869153797,19.86940916389335,0 -155.2628742695165,19.86808413364087,0 -155.2641931891765,19.86693019773432,0 -155.267920259746,19.86588349892863,0 -155.2705522531273,19.86461305342129,0 -155.3331547516091,19.84892204906887,0 -155.3319756038508,19.83251935023813,0 -155.3354821491823,19.81069303244405,0 -155.3351948452201,19.79601687908046,0 -155.3381763693187,19.78635874160098,0 -155.3435207428739,19.78094699187899,0 -155.3297812723306,19.78065506035886,0 -155.3294912709247,19.78041026778691,0 -155.3293175808769,19.78034416452009,0 -155.3287754199542,19.78041498850588,0 -155.3284592532205,19.7805389967104,0 -155.3274676051185,19.78065767494429,0 -155.3272236911994,19.78064394452679,0 -155.3267552294025,19.78053301014804,0 -155.3264113558667,19.7803772650087,0 -155.3253583238067,19.77952051810234,0 -155.3247873942368,19.7791994682239,0 -155.3240900267613,19.77898517300633,0 -155.3226289469942,19.7780697530449,0 -155.3215170846874,19.77763197234546,0 -155.321201771959,19.77738426777505,0 -155.3206703920245,19.77672766506424,0 -155.3205236088822,19.77662704613673,0 -155.3201249407298,19.77646945950828,0 -155.3190414311304,19.7763095808054,0 -155.3170954688553,19.77643819397488,0 -155.3157924857848,19.77616123575722,0 -155.3144629323552,19.77559785131687,0 -155.3138676081561,19.77532379068702,0 -155.3135504946565,19.77529495352833,0 -155.3128809884533,19.77547660122903,0 -155.3126437053359,19.77542995347168,0 -155.3120328550683,19.77507631699547,0 -155.2235300911952,19.76828971635651,0 -155.23259655574,19.82000509409184,0 -155.2577507673212,19.81632339553479,0 
					</coordinates>
				</LinearRing>
			</outerBoundaryIs>
		</Polygon>
		<atom:link rel="app" href="https://www.google.com/earth/about/versions/#earth-pro" title="Google Earth Pro 7.3.6.10441"></atom:link>
	</Placemark>
</Document>
</kml>
