{
"type": "FeatureCollection",
"name": "output_utm",
"crs": { "type": "name", "properties": { "name": "urn:ogc:def:crs:EPSG::32605" } },
"features": [
{ "type": "Feature", "properties": { "Name": "Hakalau Forest National Wildlife Refuge", "Description": "" }, "geometry": { "type": "Polygon", "coordinates": [ [ [ 263507.281510670902207, 2192736.042342834174633, 0.0 ], [ 265990.526520840940066, 2194142.256759266369045, 0.0 ], [ 265494.555814792634919, 2197382.98718076152727, 0.0 ], [ 264982.530399271170609, 2199214.097961931023747, 0.0 ], [ 264592.619404651166406, 2199120.033415311016142, 0.0 ], [ 264439.437054055510089, 2199041.108142163604498, 0.0 ], [ 264260.247381897526793, 2198873.942653415258974, 0.0 ], [ 264129.986202308908105, 2198828.189819814171642, 0.0 ], [ 263962.088938484666869, 2198720.33785584429279, 0.0 ], [ 263683.211751439841464, 2198726.626610877458006, 0.0 ], [ 263487.878879734489601, 2198615.259523732587695, 0.0 ], [ 263047.264975727419369, 2198474.430971173103899, 0.0 ], [ 262907.384212059085257, 2198348.517113430891186, 0.0 ], [ 262515.390413509681821, 2198237.871320204343647, 0.0 ], [ 262237.775012731552124, 2198100.913260143250227, 0.0 ], [ 255655.50285982657806, 2196453.037015524227172, 0.0 ], [ 255753.940457838267321, 2194635.072675738949329, 0.0 ], [ 255353.090895397530403, 2192223.344644656870514, 0.0 ], [ 255360.747678561427165, 2190597.854395914357156, 0.0 ], [ 255033.477943169826176, 2189532.737530253361911, 0.0 ], [ 254465.014804387727054, 2188941.250376961193979, 0.0 ], [ 255904.69716515741311, 2188889.037829809822142, 0.0 ], [ 255934.720966914057499, 2188861.513864455278963, 0.0 ], [ 255952.825833141803741, 2188853.943739097099751, 0.0 ], [ 256009.76131483289646, 2188861.003774356096983, 0.0 ], [ 256043.08981738507282, 2188874.278930169530213, 0.0 ], [ 256147.211726738954894, 2188885.989948984235525, 0.0 ], [ 256172.757009953667875, 2188884.117960869800299, 0.0 ], [ 256221.690603503491729, 2188871.15913913352415, 0.0 ], [ 256257.497123237146297, 2188853.418185891583562, 0.0 ], [ 256366.568669499421958, 2188757.035122303757817, 0.0 ], [ 256425.923452000366524, 2188720.663661907427013, 0.0 ], [ 256498.693705740646692, 2188695.931134791579098, 0.0 ], [ 256650.448986406991025, 2188592.466004502959549, 0.0 ], [ 256766.327037158218445, 2188542.392388980370015, 0.0 ], [ 256799.001323507109191, 2188514.511267546098679, 0.0 ], [ 256853.702685175725492, 2188441.043285322841257, 0.0 ], [ 256868.935534450778505, 2188429.691018155775964, 0.0 ], [ 256910.484203419560799, 2188411.668901340570301, 0.0 ], [ 257023.81376341523719, 2188392.40934390341863, 0.0 ], [ 257227.98211922988412, 2188403.856640491168946, 0.0 ], [ 257364.139364020753419, 2188371.320448040496558, 0.0 ], [ 257502.64836615594686, 2188307.032055221032351, 0.0 ], [ 257564.634802589484025, 2188275.832853607367724, 0.0 ], [ 257597.830731091118651, 2188272.185407012235373, 0.0 ], [ 257668.282664008147549, 2188291.339637472294271, 0.0 ], [ 257693.083871367154643, 2188285.83459910005331, 0.0 ], [ 257756.577710385638056, 2188245.802666340023279, 0.0 ], [ 267023.278969261620659, 2187370.087631909176707, 0.0 ], [ 266148.539123107329942, 2193108.657141940202564, 0.0 ], [ 263507.281510670902207, 2192736.042342834174633, 0.0 ] ] ] } }
]
}
